NORAD_CAT_ID,OBJECT_NAME,OBJECT_TYPE,EPOCH,MEAN_MOTION,ECCENTRICITY,INCLINATION,RA_OF_ASC_NODE,ARG_OF_PERICENTER,MEAN_ANOMALY,BSTAR,MEAN_MOTION_DOT,MEAN_MOTION_DDOT,TLE_LINE0,TLE_LINE1,TLE_LINE2,SEMIMAJOR_AXIS,PERIOD,APOGEE,PERIGEE,DECAYED
53432.0,STARLINK-4557,PAYLOAD,2024-03-09 12:02:56,15.0884138,0.0001562,53.2171,141.8259,100.4808,259.636,7.0364e-05,8.32e-06,0.0,0 STARLINK-4557,1 53432U 22097AW  24069.50204823  .00000832  00000-0  70364-4 0  9999,2 53432  53.2171 141.8259 0001562 100.4808 259.6360 15.08841380 88075,6917.876,95.437,540.822,538.661,0.0
53432.0,STARLINK-4557,PAYLOAD,2024-03-09 21:35:15,15.08841191,0.0001399,53.2163,140.0395,87.6395,272.4758,5.9979e-05,6.67e-06,0.0,0 STARLINK-4557,1 53432U 22097AW  24069.89948817  .00000667  00000-0  59979-4 0  9994,2 53432  53.2163 140.0395 0001399  87.6395 272.4758 15.08841191 88617,6917.877,95.437,540.71,538.774,0.0
53432.0,STARLINK-4557,PAYLOAD,2024-03-10 11:53:43,15.08841334,0.0001523,53.2167,137.3648,93.4542,266.6624,-2.0408e-06,-3.2e-06,0.0,0 STARLINK-4557,1 53432U 22097AW  24070.49564804 -.00000320  00000-0 -20408-5 0  9996,2 53432  53.2167 137.3648 0001523  93.4542 266.6624 15.08841334 88705,6917.876,95.437,540.795,538.688,0.0
53432.0,STARLINK-4557,PAYLOAD,2024-03-10 21:26:02,15.08843244,0.0001534,53.2165,135.5798,90.0309,270.0859,3.1116e-05,2.07e-06,0.0,0 STARLINK-4557,1 53432U 22097AW  24070.89308724  .00000207  00000-0  31116-4 0  9996,2 53432  53.2165 135.5798 0001534  90.0309 270.0859 15.08843244 88762,6917.87,95.437,540.797,538.674,0.0
53432.0,STARLINK-4557,PAYLOAD,2024-03-11 13:19:54,15.08849934,0.0001527,53.2162,132.606,92.1967,267.92,0.00023448,3.447e-05,0.0,0 STARLINK-4557,1 53432U 22097AW  24071.55548640  .00003447  00000-0  23448-3 0  9990,2 53432  53.2162 132.6060 0001527  92.1967 267.9200 15.08849934 88862,6917.85,95.437,540.771,538.659,0.0
53432.0,STARLINK-4557,PAYLOAD,2024-03-12 03:38:22,15.0884444,0.0001488,53.2159,129.9284,92.9945,267.1217,0.00048326,7.412e-05,0.0,0 STARLINK-4557,1 53432U 22097AW  24072.15164769  .00007412  00000-0  48326-3 0  9991,2 53432  53.2159 129.9284 0001488  92.9945 267.1217 15.08844440 88479,6917.867,95.437,540.761,538.702,0.0
53432.0,STARLINK-4557,PAYLOAD,2024-03-12 09:59:54,15.0885499,0.0001506,53.2155,128.7394,91.2492,268.8672,0.0003326,5.011e-05,0.0,0 STARLINK-4557,1 53432U 22097AW  24072.41660064  .00005011  00000-0  33260-3 0  9993,2 53432  53.2155 128.7394 0001506  91.2492 268.8672 15.08854990 88513,6917.835,95.437,540.741,538.658,0.0
53432.0,STARLINK-4557,PAYLOAD,2024-03-12 21:07:36,15.08845841,0.0001586,53.2152,126.655,99.7446,260.3726,6.1907e-05,6.98e-06,0.0,0 STARLINK-4557,1 53432U 22097AW  24072.88028146  .00000698  00000-0  61907-4 0  9999,2 53432  53.2152 126.6550 0001586  99.7446 260.3726 15.08845841 89064,6917.863,95.437,540.825,538.63,0.0
53432.0,STARLINK-4557,PAYLOAD,2024-03-13 03:29:09,15.08838658,0.0002113,53.2151,125.4676,91.0294,269.0941,-4.2886e-05,-9.71e-06,0.0,0 STARLINK-4557,1 53432U 22097AW  24073.14524668 -.00000971  00000-0 -42886-4 0  9990,2 53432  53.2151 125.4676 0002113  91.0294 269.0941 15.08838658 88626,6917.884,95.438,541.211,538.288,0.0
53432.0,STARLINK-4557,PAYLOAD,2024-03-13 09:50:42,15.08830499,0.0001476,53.2151,124.2782,97.1682,262.9478,-0.00017018,-2.995e-05,0.0,0 STARLINK-4557,1 53432U 22097AW  24073.41020904 -.00002995  00000-0 -17018-3 0  9990,2 53432  53.2151 124.2782 0001476  97.1682 262.9478 15.08830499 89140,6917.909,95.438,540.796,538.753,0.0
53432.0,STARLINK-4557,PAYLOAD,2024-03-14 03:19:56,15.0884018,0.0001476,53.2154,121.0068,97.3565,262.7595,0.00013464,1.855e-05,0.0,0 STARLINK-4557,1 53432U 22097AW  24074.13885017  .00001855  00000-0  13464-3 0  9997,2 53432  53.2154 121.0068 0001476  97.3565 262.7595 15.08840180 88771,6917.88,95.438,540.766,538.724,0.0
53432.0,STARLINK-4557,PAYLOAD,2024-03-14 06:30:43,15.0884127,0.0001418,53.2153,120.4126,94.977,265.1384,0.00035326,5.339e-05,0.0,0 STARLINK-4557,1 53432U 22097AW  24074.27133131  .00005339  00000-0  35326-3 0  9997,2 53432  53.2153 120.4126 0001418  94.9770 265.1384 15.08841270 89275,6917.877,95.437,540.722,538.761,0.0
53432.0,STARLINK-4557,PAYLOAD,2024-03-14 12:52:15,15.08851988,0.0001341,53.215,119.2234,91.9171,268.1975,0.0009806,0.00015358,0.0,0 STARLINK-4557,1 53432U 22097AW  24074.53629221  .00015358  00000-0  98060-3 0  9992,2 53432  53.2150 119.2234 0001341  91.9171 268.1975 15.08851988 89316,6917.844,95.437,540.636,538.781,0.0
53432.0,STARLINK-4557,PAYLOAD,2024-03-15 09:32:16,15.0884039,0.0001464,53.2165,115.3583,95.3309,264.7851,0.00019397,2.8e-05,0.0,0 STARLINK-4557,1 53432U 22097AW  24075.39741508  .00002800  00000-0  19397-3 0  9994,2 53432  53.2165 115.3583 0001464  95.3309 264.7851 15.08840390 88963,6917.879,95.438,540.757,538.731,0.0
53432.0,STARLINK-4557,PAYLOAD,2024-03-16 12:33:50,15.08838007,0.000144,53.2159,110.2999,93.8793,266.2364,4.2963e-07,-2.81e-06,0.0,0 STARLINK-4557,1 53432U 22097AW  24076.52349654 -.00000281  00000-0  42963-6 0  9996,2 53432  53.2159 110.2999 0001440  93.8793 266.2364 15.08838007 89133,6917.886,95.438,540.748,538.755,0.0
53432.0,STARLINK-4557,PAYLOAD,2024-03-17 09:13:51,15.08836335,0.000145,53.2171,106.434,94.5404,265.5754,6.3225e-05,7.18e-06,0.0,0 STARLINK-4557,1 53432U 22097AW  24077.38462217  .00000718  00000-0  63225-4 0  9998,2 53432  53.2171 106.4340 0001450  94.5404 265.5754 15.08836335 89746,6917.892,95.438,540.76,538.753,0.0
53432.0,STARLINK-4557,PAYLOAD,2024-03-18 01:07:42,15.08837117,0.0001455,53.217,103.4602,92.9814,267.1344,9.6477e-05,1.248e-05,0.0,0 STARLINK-4557,1 53432U 22097AW  24078.04702259  .00001248  00000-0  96477-4 0  9999,2 53432  53.2170 103.4602 0001455  92.9814 267.1344 15.08837117 89365,6917.889,95.438,540.761,538.748,0.0
53432.0,STARLINK-4557,PAYLOAD,2024-03-18 09:04:37,15.08845986,0.0001443,53.2168,101.9753,94.4859,265.6298,0.00015556,2.189e-05,0.0,0 STARLINK-4557,1 53432U 22097AW  24078.37821520  .00002189  00000-0  15556-3 0  9991,2 53432  53.2168 101.9753 0001443  94.4859 265.6298 15.08845986 89415,6917.862,95.437,540.725,538.729,0.0
53432.0,STARLINK-4557,PAYLOAD,2024-03-19 00:58:29,15.08840964,0.0001497,53.2169,99.0043,88.9553,271.1611,0.00014461,2.014e-05,0.0,0 STARLINK-4557,1 53432U 22097AW  24079.04061948  .00002014  00000-0  14461-3 0  9997,2 53432  53.2169  99.0043 0001497  88.9553 271.1611 15.08840964 89516,6917.877,95.437,540.778,538.707,0.0
53432.0,STARLINK-4557,PAYLOAD,2024-03-19 08:55:25,15.08846488,0.0001577,53.2172,97.5174,81.8172,278.2998,0.00012978,1.778e-05,0.0,0 STARLINK-4557,1 53432U 22097AW  24079.37181780  .00001778  00000-0  12978-3 0  9997,2 53432  53.2172  97.5174 0001577  81.8172 278.2998 15.08846488 90049,6917.861,95.437,540.817,538.635,0.0
53432.0,STARLINK-4557,PAYLOAD,2024-03-20 00:49:17,15.08840673,0.0002007,53.2179,94.5455,68.3202,291.8004,2.9058e-05,1.74e-06,0.0,0 STARLINK-4557,1 53432U 22097AW  24080.03422513  .00000174  00000-0  29058-4 0  9991,2 53432  53.2179  94.5455 0002007  68.3202 291.8004 15.08840673 89663,6917.878,95.438,541.132,538.355,0.0
53432.0,STARLINK-4557,PAYLOAD,2024-03-20 07:10:49,15.08838052,0.000194,53.2178,93.3552,70.6133,289.5069,-5.5744e-06,-3.77e-06,0.0,0 STARLINK-4557,1 53432U 22097AW  24080.29918781 -.00000377  00000-0 -55744-5 0  9995,2 53432  53.2178  93.3552 0001940  70.6133 289.5069 15.08838052 90183,6917.886,95.438,541.093,538.409,0.0
53432.0,STARLINK-4557,PAYLOAD,2024-03-21 05:26:10,15.08863576,0.0001451,53.2178,89.1895,105.7553,254.3599,0.0001878,2.704e-05,0.0,0 STARLINK-4557,1 53432U 22097AW  24081.22651618  .00002704  00000-0  18780-3 0  9993,2 53432  53.2178  89.1895 0001451 105.7553 254.3599 15.08863576 89847,6917.808,95.436,540.677,538.67,0.0
53432.0,STARLINK-4557,PAYLOAD,2024-03-21 10:12:21,15.08842379,0.0001497,53.2188,88.3005,80.0494,280.0667,1.8048e-05,-1e-08,0.0,0 STARLINK-4557,1 53432U 22097AW  24081.42525274 -.00000001  00000-0  18048-4 0  9990,2 53432  53.2188  88.3005 0001497  80.0494 280.0667 15.08842379 89874,6917.873,95.437,540.774,538.703,0.0
53432.0,STARLINK-4557,PAYLOAD,2024-03-22 10:03:08,15.08856589,0.0001581,53.2166,83.8328,124.48,235.6341,0.00025086,3.708e-05,0.0,0 STARLINK-4557,1 53432U 22097AW  24082.41884725  .00003708  00000-0  25086-3 0  9994,2 53432  53.2166  83.8328 0001581 124.4800 235.6341 15.08856589 90028,6917.83,95.437,540.788,538.601,0.0
53432.0,STARLINK-4557,PAYLOAD,2024-03-23 05:07:47,15.08824352,0.0001689,53.2173,80.2668,109.3447,250.7728,0.00015074,2.111e-05,0.0,0 STARLINK-4557,1 53432U 22097AW  24083.21374555  .00002111  00000-0  15074-3 0  9991,2 53432  53.2173  80.2668 0001689 109.3447 250.7728 15.08824352 90145,6917.928,95.439,540.962,538.625,0.0
53432.0,STARLINK-4557,PAYLOAD,2024-03-23 22:37:02,15.08837128,0.0001428,53.2168,76.9955,99.9086,260.2067,0.00025032,3.698e-05,0.0,0 STARLINK-4557,1 53432U 22097AW  24083.94238536  .00003698  00000-0  25032-3 0  9995,2 53432  53.2168  76.9955 0001428  99.9086 260.2067 15.08837128 90736,6917.889,95.438,540.742,538.766,0.0
53432.0,STARLINK-4557,PAYLOAD,2024-03-24 04:58:34,15.08854691,0.0001489,53.2166,75.8082,89.6014,270.5149,0.00090287,0.00014116,0.0,0 STARLINK-4557,1 53432U 22097AW  24084.20734320  .00014116  00000-0  90287-3 0  9998,2 53432  53.2166  75.8082 0001489  89.6014 270.5149 15.08854691 90297,6917.835,95.437,540.731,538.67,0.0
53432.0,STARLINK-4557,PAYLOAD,2024-03-24 06:33:57,15.08861505,0.000154,53.2169,75.5106,92.7264,267.3904,0.0011649,0.00018311,0.0,0 STARLINK-4557,1 53432U 22097AW  24084.27358202  .00018311  00000-0  11649-2 0  9991,2 53432  53.2169  75.5106 0001540  92.7264 267.3904 15.08861505 90783,6917.815,95.436,540.745,538.614,0.0
53432.0,STARLINK-4557,PAYLOAD,2024-03-25 04:49:21,15.08857336,0.0002374,53.217,71.3473,156.2026,203.9076,0.0018221,0.00028844,0.0,0 STARLINK-4557,1 53432U 22097AW  24085.20094074  .00028844  00000-0  18221-2 0  9994,2 53432  53.2170  71.3473 0002374 156.2026 203.9076 15.08857336 90440,6917.827,95.436,541.335,538.05,0.0
